satname,norad_id,inclination_deg,eccentricity,mean_motion_rev_per_day,perigee_km,apogee_km,l1,l2
STARLINK-1402,45685,53.0446,0.0004858,15.49450093,415.0319342303528,421.63538512329524,1 45685U 20035AE  26095.91670139  .00151188  00000+0  26599-2 0  9992,2 45685  53.0446 253.3271 0004858 315.4143  38.5791 15.49450093  5795
STARLINK-1404,45686,53.1598,3.24e-05,15.37834649,452.2924311867764,452.73505735500567,1 45686U 20035AF  26095.94351150  .00084966  00000+0  22371-2 0  9998,2 45686  53.1598 282.5237 0000324  37.6733 322.4293 15.37834649323158
STARLINK-1413,45689,53.1587,0.0001375,15.30204138,474.2603799143535,476.14504833573665,1 45689U 20035AJ  26095.80781177  .00009262  00000+0  32441-3 0  9998,2 45689  53.1587 283.6186 0001375  92.3744 267.7414 15.30204138323042
STARLINK-1417,45693,53.0506,0.0002469,15.13963028,522.4243457237953,525.8326844351432,1 45693U 20035AN  26096.27103912  .00040994  00000+0  22378-2 0  9994,2 45693  53.0506 289.1634 0002469 326.1587  33.9248 15.13963028323076
STARLINK-1420,45695,53.0488,0.0004572,15.59564309,385.823218592187,392.01101287561414,1 45695U 20035AQ  26096.25002315  .00193307  00000+0  23364-2 0  9992,2 45695  53.0488 248.9010 0004572 264.0955 230.6839 15.59564309  5870
STARLINK-1422,45696,53.1572,0.0001219,15.30170072,474.46899597884476,476.1398649995981,1 45696U 20035AR  26095.81520081  .00000634  00000+0  33559-4 0  9998,2 45696  53.1572 283.5864 0001219  99.0968 261.0171 15.30170072323120
STARLINK-1351,45697,53.0481,0.0005184,15.57961397,390.0474058893069,397.06829911237946,1 45697U 20035AS  26096.25002315  .00186706  00000+0  23993-2 0  9997,2 45697  53.0481 248.3868 0005184 277.8561 207.6899 15.57961397  5916
STARLINK-1400,45700,53.0471,0.0005554,15.55917846,395.72158425739417,403.25016774805863,1 45700U 20035AV  26096.25002315  .00180909  00000+0  25103-2 0  9996,2 45700  53.0471 250.1140 0005554 219.0688 242.2392 15.55917846  5868
STARLINK-1403,45701,53.1549,0.0001274,15.29359533,476.8522646566462,478.59913847300504,1 45701U 20035AW  26095.78518660  .00000125  00000+0  16649-4 0  9997,2 45701  53.1549 270.8113 0001274 102.4590 257.6553 15.29359533323290
STARLINK-1407,45703,53.0307,0.0003544,15.65572352,369.20108055646597,373.9852893115476,1 45703U 20035AY  26095.93849046  .00062177  00000+0  60809-3 0  9992,2 45703  53.0307 182.3920 0003544 223.1563 136.9174 15.65572352324553
STARLINK-1411,45706,53.04,0.000418,15.68833231,359.4194198143332,365.0543723914752,1 45706U 20035BB  26096.25002315  .00105610  00000+0  89696-3 0  9996,2 45706  53.0400 206.1342 0004180 315.4342 240.3844 15.68833231  5942
STARLINK-1423,45710,53.0465,0.0006458,15.58424985,387.84256568589717,396.58715214687345,1 45710U 20035BF  26096.25002315  .00186365  00000+0  23530-2 0  9991,2 45710  53.0465 248.6742 0006458 244.4448 281.1495 15.58424985  5914
STARLINK-1433,45711,53.0465,0.0005982,15.60728968,381.5041509465691,389.59622629903697,1 45711U 20035BG  26096.25002315  .00195824  00000+0  22625-2 0  9996,2 45711  53.0465 247.2995 0005982 239.3035 354.9221 15.60728968  5924
STARLINK-1434,45712,53.0516,0.0002839,15.2942305,475.5895585523358,479.4822096159178,1 45712U 20035BH  26095.64791319  .00069853  00000+0  24051-2 0  9995,2 45712  53.0516 254.9306 0002839 208.3479 151.7366 15.29423050323519
STARLINK-1465,45731,53.0492,0.0005281,15.54541318,399.90491390848,407.0676644264977,1 45731U 20038B   26096.20356803  .00122528  00000+0  18039-2 0  9995,2 45731  53.0492  90.7136 0005281  41.8160 318.3253 15.54541318320655
STARLINK-1471,45735,53.0474,0.0001701,15.50568935,413.9083292667792,416.21937619687924,1 45735U 20038F   26096.18488454  .00030377  00000+0  52812-3 0  9992,2 45735  53.0474  10.1433 0001701  48.3500 311.7654 15.50568935321796
STARLINK-1480,45741,53.0515,0.0002701,15.56623015,395.60874179200346,399.26890785257365,1 45741U 20038M   26096.25002315  .00113296  00000+0  15478-2 0  9993,2 45741  53.0515  84.6070 0002701  94.1256  34.0799 15.56623015  5904
STARLINK-1500,45744,53.0362,0.0003335,15.36409916,454.45642962278544,459.01528982021955,1 45744U 20038Q   26096.27408315  .00030638  00000+0  85737-3 0  9992,2 45744  53.0362  63.2039 0003335  30.6692 329.4504 15.36409916321050
STARLINK-1504,45746,53.0239,9.42e-05,15.55226253,400.85637822105764,402.1336608935417,1 45746U 20038S   26096.01765920  .00037781  00000+0  55333-3 0  9999,2 45746  53.0239  10.1534 0000942  98.5696 261.5420 15.55226253321767
STARLINK-1506,45747,53.0744,0.000324,15.26934699,482.7583892767516,487.2056904145711,1 45747U 20038T   26096.15822318  .00011334  00000+0  43518-3 0  9998,2 45747  53.0744  75.2415 0003240   6.3724 353.7315 15.26934699320889
STARLINK-1464,45751,53.0494,0.0003839,15.47421732,421.66012915953524,426.8830184625076,1 45751U 20038X   26096.18112655  .00103059  00000+0  19612-2 0  9995,2 45751  53.0494  73.6114 0003839  43.7873 316.3438 15.47421732320904
STARLINK-1477,45754,53.0505,0.0003222,15.1582414,516.2555859361855,520.6997644328749,1 45754U 20038AA  26096.20652869  .00043336  00000+0  22430-2 0  9990,2 45754  53.0505  87.7503 0003222  62.1661 297.9658 15.15824140320705
STARLINK-1478,45755,53.0495,0.0003979,15.59989351,384.9957493677657,390.3799928001745,1 45755U 20038AB  26096.16086460  .00096438  00000+0  11640-2 0  9996,2 45755  53.0495  64.5686 0003979  34.8398 325.2874 15.59989351321015
STARLINK-1493,45759,53.0508,0.0004679,15.55204958,398.38468841278154,404.7291259711319,1 45759U 20038AF  26096.25931899  .00101575  00000+0  14647-2 0  9994,2 45759  53.0508  71.7058 0004679  95.8158 264.3386 15.55204958320925
STARLINK-1494,45760,53.0476,0.0005465,15.80644202,324.95251968079356,332.2830026347383,1 45760U 20038AG  26096.25002315  .00212214  00000+0  10628-2 0  9996,2 45760  53.0476  13.9729 0005465 112.9945 195.8968 15.80644202  5879
STARLINK-1502,45764,53.0486,0.00062,15.51670301,407.63916636053546,416.05874894802673,1 45764U 20038AL  26096.16773268  .00112716  00000+0  18434-2 0  9991,2 45764  53.0486  74.3394 0006200  85.5964 274.5753 15.51670301320893
STARLINK-1470,45772,53.0468,0.0003395,15.30531954,471.89771716473024,476.5504703473907,1 45772U 20038AU  26096.05955301  .00066499  00000+0  22141-2 0  9994,2 45772  53.0468  47.0546 0003395  96.3912 263.7474 15.30531954321262
STARLINK-1482,45773,53.1608,0.0003457,15.32675457,465.4670988824655,470.20040305968723,1 45773U 20038AV  26096.22709942  .00076821  00000+0  23877-2 0  9999,2 45773  53.1608  62.9293 0003457  97.4138 262.7257 15.32675457321061
STARLINK-1496,45780,53.0499,2.92e-05,15.53237567,407.0825140992092,407.47878248986854,1 45780U 20038BC  26096.22989405  .00123191  00000+0  19022-2 0  9991,2 45780  53.0499  45.5716 0000292  53.8104 306.2933 15.53237567321284
STARLINK-1513,45786,53.16,0.0001232,15.30193293,474.3907599433742,476.07943082767724,1 45786U 20038BJ  26096.18802179  .00002021  00000+0  80347-4 0  9992,2 45786  53.1600  63.4244 0001232  89.9241 270.1901 15.30193293321058
STARLINK-1522,46027,53.0648,0.0002552,15.10506461,532.8902235921132,536.4185123063153,1 46027U 20055A   26096.02304153  .00035825  00000+0  21566-2 0  9996,2 46027  53.0648   3.1764 0002552 127.2836 232.8388 15.10506461313012
STARLINK-1523,46028,53.161,0.0001467,15.301858,474.2520754191237,476.2628613561483,1 46028U 20055B   26096.01978944 -.00001327  00000+0 -32691-4 0  9996,2 46028  53.1610 359.7599 0001467  90.8663 269.2506 15.30185800313081
STARLINK-1526,46029,53.1558,0.0001598,15.29405626,476.49240870959056,478.6834984047482,1 46029U 20055C   26096.01328917  .00032220  00000+0  11223-2 0  9996,2 46029  53.1558 359.7971 0001598 145.3514 214.7591 15.29405626313070
STARLINK-1555,46032,53.1611,9.49e-05,15.30234639,474.4612722635766,475.76201885650335,1 46032U 20055F   26095.99764288 -.00025426  00000+0 -84836-3 0  9994,2 46032  53.1611 359.8561 0000949  90.8384 269.2726 15.30234639313079
STARLINK-1556,46033,53.1552,0.000147,15.29346639,476.75641878246824,478.77205374592904,1 46033U 20055G   26095.97639055 -.00003593  00000+0 -11225-3 0  9999,2 46033  53.1552 359.9230 0001470  82.9576 277.1591 15.29346639313040
STARLINK-1557,46034,53.1552,0.0001481,15.29339625,476.76983628631024,478.8005604414657,1 46034U 20055H   26096.16621067  .00001643  00000+0  69309-4 0  9995,2 46034  53.1552 358.9437 0001481  90.8482 269.2689 15.29339625313075
STARLINK-1558,46035,53.1608,0.0001335,15.30184104,474.347603583351,476.1774612585077,1 46035U 20055J   26096.12197974 -.00001525  00000+0 -39399-4 0  9994,2 46035  53.1608 359.2884 0001335  87.6272 272.4882 15.30184104313092
STARLINK-1560,46036,53.1551,0.0012759,15.27218819,475.3752475201363,492.88638253051795,1 46036U 20055K   26095.96795477 -.00462479  00000+0 -18121-1 0  9994,2 46036  53.1551 359.9145 0012759 114.0980 246.1356 15.27218819313079
STARLINK-1567,46038,53.0882,8.27e-05,15.72795556,350.35501634203865,351.46800096537027,1 46038U 20055M   26096.91926044  .01266236  00000+0  82216-2 0  9997,2 46038  53.0882 352.0006 0000827 112.0519 248.0587 15.72795556313251
STARLINK-1569,46039,53.1602,0.0001783,15.30190294,474.0220920977872,476.46600778019547,1 46039U 20055N   26095.92918717 -.00001529  00000+0 -39523-4 0  9994,2 46039  53.1602   0.1771 0001783  99.2453 260.8750 15.30190294313052
STARLINK-1582,46043,53.162,0.0001249,15.3019065,474.3869998157561,476.0989741365029,1 46043U 20055S   26096.00082095 -.00000871  00000+0 -17301-4 0  9999,2 46043  53.1620 359.8383 0001249  95.2097 264.9047 15.30190650313068
STARLINK-1591,46045,53.1618,0.0001082,15.30181078,474.53002887578896,476.0131064898342,1 46045U 20055U   26096.02716089 -.00002031  00000+0 -56487-4 0  9998,2 46045  53.1618 359.7265 0001082  91.0768 269.0357 15.30181078313052
STARLINK-1524,46047,53.1629,0.0001133,15.30200333,474.43759046471496,475.99055981834135,1 46047U 20055W   26096.08664995  .00006695  00000+0  23796-3 0  9998,2 46047  53.1629 346.5846 0001133  89.4637 270.6493 15.30200333313266
